[Satellite]
VERSION=1.1
NAME=TIMED
NICKNAME=TIMED
TLE1=1 26998U 01055B   20157.90231793  .00000065  00000-0  11053-4 0  9999
TLE2=2 26998  74.0721 316.1903 0000945 339.9520  20.1623 14.88194399  2742
STATUS=0
